[{"OBJECT_NAME":"STARLINK-31710","OBJECT_ID":"2024-062E","EPOCH":"2026-03-09T17:10:18.837120","MEAN_MOTION":15.30191972,"ECCENTRICITY":0.00012283,"INCLINATION":53.1602,"RA_OF_ASC_NODE":255.6643,"ARG_OF_PERICENTER":96.7544,"MEAN_ANOMALY":263.3597,"EPHEMERIS_TYPE":0,"CLASSIFICATION_TYPE":"U","NORAD_CAT_ID":59378,"ELEMENT_SET_NO":999,"REV_AT_EPOCH":10963,"BSTAR":4.6990441e-5,"MEAN_MOTION_DOT":1.032e-5,"MEAN_MOTION_DDOT":0},{"OBJECT_NAME":"COSMOS 2588","OBJECT_ID":"2025-109A","EPOCH":"2026-03-09T19:28:59.107008","MEAN_MOTION":15.29122656,"ECCENTRICITY":0.0005019,"INCLINATION":72.9704,"RA_OF_ASC_NODE":73.5401,"ARG_OF_PERICENTER":308.678,"MEAN_ANOMALY":51.3966,"EPHEMERIS_TYPE":0,"CLASSIFICATION_TYPE":"U","NORAD_CAT_ID":64095,"ELEMENT_SET_NO":999,"REV_AT_EPOCH":4442,"BSTAR":0.00032611,"MEAN_MOTION_DOT":9.169e-5,"MEAN_MOTION_DDOT":0}]
